H1 CPF 01  gfz 2021 03 22 13  5812 tandemx   
H2 1003001  6202 36605    2021 03 22 12 59 42 2021 03 27 00 00 42   120 1 1  0 0 0
H9
10 0 59299  48942.000000  0   -2688773.026  -4797875.323  -4156420.000
10 0 59299  49062.000000  0   -2566581.948  -4189952.944  -4836135.223
10 0 59299  49182.000000  0   -2388531.923  -3511839.344  -5431203.796
10 0 59299  49302.000000  0   -2156644.100  -2776343.257  -5931308.068
10 0 59299  49422.000000  0   -1874095.638  -1997194.086  -6327800.589
10 0 59299  49542.000000  0   -1545174.682  -1188782.810  -6613842.414
10 0 59299  49662.000000  0   -1175214.217   -365896.987  -6784509.202
10 0 59299  49782.000000  0    -770506.239    456545.559  -6836866.097
10 0 59299  49902.000000  0    -338196.054   1263760.341  -6770012.484
10 0 59299  50022.000000  0     113840.735   2041354.927  -6585095.440
10 0 59299  50142.000000  0     577136.742   2775579.031  -6285293.649
10 0 59299  50262.000000  0    1042788.073   3453564.646  -5875770.129
10 0 59299  50382.000000  0    1501621.234   4063550.415  -5363591.321
10 0 59299  50502.000000  0    1944369.818   4595087.168  -4757616.694
10 0 59299  50622.000000  0    2361859.091   5039223.017  -4068357.231
10 0 59299  50742.000000  0    2745193.966   5388662.320  -3307802.312
10 0 59299  50862.000000  0    3085947.000   5637895.219  -2489219.156
10 0 59299  50982.000000  0    3376342.924   5783294.850  -1626925.474
10 0 59299  51102.000000  0    3609434.231   5823178.450   -736039.111
10 0 59299  51222.000000  0    3779262.820   5757830.192    167791.000
10 0 59299  51342.000000  0    3881003.571   5589484.343   1068666.267
10 0 59299  51462.000000  0    3911086.519   5322268.395   1950725.800
10 0 59299  51582.000000  0    3867294.290   4962109.395   2798433.310
10 0 59299  51702.000000  0    3748831.826   4516604.355   3596860.949
10 0 59299  51822.000000  0    3556365.464   3994854.940   4331957.344
10 0 59299  51942.000000  0    3292034.547   3407277.773   4990798.640
10 0 59299  52062.000000  0    2959428.280   2765390.217   5561818.563
10 0 59299  52182.000000  0    2563534.905   2081577.253   6035006.859
10 0 59299  52302.000000  0    2110665.453   1368848.179   6402079.857
10 0 59299  52422.000000  0    1608349.673    640585.120   6656619.869
10 0 59299  52542.000000  0    1065207.835    -89708.938   6794180.478
10 0 59299  52662.000000  0     490801.558   -808659.295   6812360.417
10 0 59299  52782.000000  0    -104534.973  -1503265.037   6710843.547
10 0 59299  52902.000000  0    -709881.161  -2161133.951   6491403.485
10 0 59299  53022.000000  0   -1313930.016  -2770703.824   6157873.312
10 0 59299  53142.000000  0   -1905196.901  -3321445.747   5716081.673
10 0 59299  53262.000000  0   -2472236.548  -3804048.367   5173758.416
10 0 59299  53382.000000  0   -3003867.004  -4210580.566   4540407.028
10 0 59299  53502.000000  0   -3489394.321  -4534627.663   3827142.674
10 0 59299  53622.000000  0   -3918830.849  -4771397.829   3046499.217
10 0 59299  53742.000000  0   -4283102.873  -4917797.232   2212209.626
10 0 59299  53862.000000  0   -4574244.819  -4972472.216   1338962.338
10 0 59299  53982.000000  0   -4785574.082  -4935815.661    442137.195
10 0 59299  54102.000000  0   -4911841.766  -4809937.837   -462472.656
10 0 59299  54222.000000  0   -4949355.715  -4598602.410  -1358947.864
10 0 59299  54342.000000  0   -4896071.561  -4307128.468  -2231532.821
10 0 59299  54462.000000  0   -4751649.227  -3942260.794  -3064920.371
10 0 59299  54582.000000  0   -4517474.596  -3512013.516  -3844524.201
10 0 59299  54702.000000  0   -4196647.078  -3025492.106  -4556734.627
10 0 59299  54822.000000  0   -3793933.553  -2492697.481  -5189153.390
10 0 59299  54942.000000  0   -3315690.212  -1924317.493  -5730802.801
10 0 59299  55062.000000  0   -2769755.411  -1331510.917  -6172306.949
10 0 59299  55182.000000  0   -2165315.717   -725688.107  -6506043.385
10 0 59299  55302.000000  0   -1512747.199   -118293.035  -6726263.006
10 0 59299  55422.000000  0    -823437.016    479408.655  -6829177.181
10 0 59299  55542.000000  0    -109588.400   1056532.858  -6813015.763
10 0 59299  55662.000000  0     615990.036   1602770.012  -6678053.898
10 0 59299  55782.000000  0    1340107.646   2108564.236  -6426610.035
10 0 59299  55902.000000  0    2049427.062   2565278.260  -6063010.865
10 0 59299  56022.000000  0    2730705.435   2965340.280  -5593524.818
10 0 59299  56142.000000  0    3371038.536   3302369.886  -5026263.382
10 0 59299  56262.000000  0    3958104.481   3571282.945  -4371053.550
10 0 59299  56382.000000  0    4480404.020   3768372.800  -3639278.534
10 0 59299  56502.000000  0    4927491.404   3891364.865  -2843688.348
10 0 59299  56622.000000  0    5290189.069   3939443.267  -1998182.777
10 0 59299  56742.000000  0    5560782.677   3913249.180  -1117570.550
10 0 59299  56862.000000  0    5733190.608   3814848.993   -217307.852
10 0 59299  56982.000000  0    5803103.467   3647673.703    686777.462
10 0 59299  57102.000000  0    5768089.962   3416429.834   1578771.717
10 0 59299  57222.000000  0    5627664.514   3126983.734   2442964.396
10 0 59299  57342.000000  0    5383315.675   2786223.455   3264133.605
10 0 59299  57462.000000  0    5038494.077   2401900.447   4027822.452
10 0 59299  57582.000000  0    4598559.120   1982455.067   4720598.370
10 0 59299  57702.000000  0    4070690.362   1536832.184   5330289.412
10 0 59299  57822.000000  0    3463763.334   1074290.799   5846199.603
10 0 59299  57942.000000  0    2788190.017    604210.554   6259292.277
10 0 59299  58062.000000  0    2055733.697    135902.039   6562340.493
10 0 59299  58182.000000  0    1279301.119   -321575.928   6750047.953
10 0 59299  58302.000000  0     472712.304   -759590.912   6819137.911
10 0 59299  58422.000000  0    -349547.286  -1170099.286   6768405.994
10 0 59299  58542.000000  0   -1172586.669  -1545793.496   6598739.211
10 0 59299  58662.000000  0   -1981378.061  -1880232.266   6313100.023
10 0 59299  58782.000000  0   -2761028.949  -2167950.289   5916477.492
10 0 59299  58902.000000  0   -3497056.593  -2404548.523   5415808.523
10 0 59299  59022.000000  0   -4175662.449  -2586763.784   4819862.897
10 0 59299  59142.000000  0   -4783996.110  -2712514.152   4139093.739
10 0 59299  59262.000000  0   -5310404.948  -2780919.107   3385457.446
10 0 59299  59382.000000  0   -5744664.471  -2792294.589   2572206.191
10 0 59299  59502.000000  0   -6078185.478  -2748123.839   1713654.989
10 0 59299  59622.000000  0   -6304192.057  -2651004.296    824925.081
10 0 59299  59742.000000  0   -6417863.221  -2504569.047    -78329.991
10 0 59299  59862.000000  0   -6416437.012  -2313387.118   -980208.041
10 0 59299  59982.000000  0   -6299272.548  -2082844.084  -1864848.447
10 0 59299  60102.000000  0   -6067867.627  -1819006.853  -2716719.149
10 0 59299  60222.000000  0   -5725834.155  -1528476.195  -3520894.631
10 0 59299  60342.000000  0   -5278832.064  -1218230.963  -4263319.793
10 0 59299  60462.000000  0   -4734464.242   -895468.007  -4931054.407
10 0 59299  60582.000000  0   -4102135.276   -567441.224  -5512494.193
10 0 59299  60702.000000  0   -3392877.508   -241304.135  -5997564.060
10 0 59299  60822.000000  0   -2619150.204     76040.865  -6377881.350
10 0 59299  60942.000000  0   -1794616.455    378083.050  -6646888.699
10 0 59299  61062.000000  0    -933900.920    658831.027  -6799956.022
10 0 59299  61182.000000  0     -52333.868    912927.230  -6834451.005
10 0 59299  61302.000000  0     834314.921   1135746.727  -6749778.477
10 0 59299  61422.000000  0    1710110.707   1323478.481  -6547392.161
10 0 59299  61542.000000  0    2559234.785   1473190.096  -6230773.145
10 0 59299  61662.000000  0    3366265.509   1582873.324  -5805375.969
10 0 59299  61782.000000  0    4116454.694   1651469.613  -5278543.134
10 0 59299  61902.000000  0    4795997.212   1678876.300  -4659390.637
10 0 59299  62022.000000  0    5392290.092   1665932.997  -3958661.389
10 0 59299  62142.000000  0    5894173.407   1614387.458  -3188548.065
10 0 59299  62262.000000  0    6292149.015   1526841.650  -2362488.909
10 0 59299  62382.000000  0    6578573.001   1406679.362  -1494937.250
10 0 59299  62502.000000  0    6747814.330   1257976.053   -601107.764
10 0 59299  62622.000000  0    6796375.427   1085392.453    303294.803
10 0 59299  62742.000000  0    6722969.693    894055.819   1202358.091
10 0 59299  62862.000000  0    6528557.671    689430.963   2080249.524
10 0 59299  62982.000000  0    6216336.621    477183.413   2921505.498
10 0 59299  63102.000000  0    5791684.027    263039.527   3711311.408
10 0 59299  63222.000000  0    5262057.562     52646.630   4435768.951
10 0 59299  63342.000000  0    4636855.197   -148561.574   5082142.686
10 0 59299  63462.000000  0    3927238.577   -335494.186   5639085.442
10 0 59299  63582.000000  0    3145922.724   -503521.500   6096833.878
10 0 59299  63702.000000  0    2306940.488   -648579.866   6447374.398
10 0 59299  63822.000000  0    1425385.352   -767262.525   6684577.771
10 0 59299  63942.000000  0     517135.847   -856894.326   6804301.681
10 0 59299  64062.000000  0    -401432.771   -915588.531   6804457.587
10 0 59299  64182.000000  0   -1313743.243   -942285.351   6685043.768
10 0 59299  64302.000000  0   -2203314.164   -936771.108   6448144.731
10 0 59299  64422.000000  0   -3054055.964   -899677.573   6097896.911
10 0 59299  64542.000000  0   -3850562.348   -832461.780   5640422.649
10 0 59299  64662.000000  0   -4578393.587   -737367.424   5083730.002
10 0 59299  64782.000000  0   -5224345.143   -617367.870   4437578.242
10 0 59299  64902.000000  0   -5776695.338   -476091.521   3713310.639
10 0 59299  65022.000000  0   -6225426.606   -317731.184   2923657.603
10 0 59299  65142.000000  0   -6562417.075   -146939.253   2082514.322
10 0 59299  65262.000000  0   -6781598.173     31289.359   1204693.448
10 0 59299  65382.000000  0   -6879071.600    211742.599    305657.852
99
